ONEWEB-0505             
1 54123U 22138L   26023.61830299  .00000020  00000+0  16581-4 0  9998
2 54123  87.9250 333.7263 0001514  64.5544 295.5745 13.19726089157741
ONEWEB-0506             
1 54124U 22138M   26023.59302841 -.00000028  00000+0 -10301-3 0  9996
2 54124  87.9251 333.7288 0001683  74.1623 285.9696 13.19726897157736
ONEWEB-0507             
1 54125U 22138N   26023.38610190 -.00000111  00000+0 -30868-3 0  9996
2 54125  87.9235 333.7978 0001607  76.8832 283.2480 13.19727954157751
ONEWEB-0508             
1 54126U 22138P   26023.61039623  .00000002  00000+0 -27807-4 0  9997
2 54126  87.9238 333.7501 0001430  74.5161 285.6130 13.19727403157769
ONEWEB-0509             
1 54127U 22138Q   26023.58511776  .00000071  00000+0  14613-3 0  9993
2 54127  87.9252 333.7300 0001690  76.9509 283.1812 13.19727593157730
ONEWEB-0510             
1 54128U 22138R   26023.58752902  .00000033  00000+0  48050-4 0  9993
2 54128  87.9230 303.2867 0002110  85.9228 274.2147 13.20769920160191
ONEWEB-0511             
1 54129U 22138S   26023.35452023  .00000082  00000+0  17256-3 0  9997
2 54129  87.9252 333.7797 0002001  73.5994 286.5359 13.19727098157733
ONEWEB-0512             
1 54130U 22138T   26023.34662607  .00000092  00000+0  19745-3 0  9995
2 54130  87.9242 333.8005 0001683  68.5540 291.5772 13.19725902157707
ONEWEB-0513             
1 54131U 22138U   26023.56286618  .00000083  00000+0  17289-3 0  9995
2 54131  87.9253 333.7158 0001862  52.1308 307.9993 13.20262585157632
ONEWEB-0514             
1 54132U 22138V   26023.58986348  .00000005  00000+0 -19183-4 0  9996
2 54132  87.9245 333.7400 0001901  81.2989 278.8359 13.19726828157754
ONEWEB-0515             
1 54133U 22138W   26023.49914254  .00000050  00000+0  91389-4 0  9991
2 54133  87.9232 303.2923 0001882 104.8789 255.2553 13.20773523160206
ONEWEB-0516             
1 54134U 22138X   26023.56459789  .00000145  00000+0  32977-3 0  9999
2 54134  87.9234 333.7599 0001679  80.9550 279.1773 13.19726959157754
ONEWEB-0517             
1 54135U 22138Y   26023.54405516  .00000033  00000+0  49544-4 0  9992
2 54135  87.9243 333.7497 0002029  74.5731 285.5626 13.19727283157751
ONEWEB-0518             
1 54136U 22138Z   26023.56300295  .00000150  00000+0  34302-3 0  9998
2 54136  87.9235 333.7618 0001650  75.7195 284.4121 13.19727753157754
ONEWEB-0519             
1 54137U 22138AA  26023.58829468 -.00000009  00000+0 -55543-4 0  9995
2 54137  87.9247 333.7314 0001989  75.4051 284.7302 13.19724737157768
ONEWEB-0520             
1 54138U 22138AB  26023.54722411  .00000111  00000+0  24554-3 0  9991
2 54138  87.9252 333.7451 0001540  72.4098 287.7202 13.19726728157740
ONEWEB-0521             
1 54139U 22138AC  26023.58039602  .00000056  00000+0  10634-3 0  9991
2 54139  87.9250 333.7227 0002025  77.5144 282.6215 13.19726365157696
