[{"OBJECT_NAME":"ONEWEB-0505","OBJECT_ID":"2022-138L","EPOCH":"2026-01-23T14:50:21.378336","MEAN_MOTION":13.19726089,"ECCENTRICITY":0.00015141,"INCLINATION":87.925,"RA_OF_ASC_NODE":333.7263,"ARG_OF_PERICENTER":64.5544,"MEAN_ANOMALY":295.5745,"EPHEMERIS_TYPE":0,"CLASSIFICATION_TYPE":"U","NORAD_CAT_ID":54123,"ELEMENT_SET_NO":999,"REV_AT_EPOCH":15774,"BSTAR":1.6581482e-5,"MEAN_MOTION_DOT":2.0e-7,"MEAN_MOTION_DDOT":0},{"OBJECT_NAME":"ONEWEB-0506","OBJECT_ID":"2022-138M","EPOCH":"2026-01-23T14:13:57.654624","MEAN_MOTION":13.19726897,"ECCENTRICITY":0.00016839,"INCLINATION":87.9251,"RA_OF_ASC_NODE":333.7288,"ARG_OF_PERICENTER":74.1623,"MEAN_ANOMALY":285.9696,"EPHEMERIS_TYPE":0,"CLASSIFICATION_TYPE":"U","NORAD_CAT_ID":54124,"ELEMENT_SET_NO":999,"REV_AT_EPOCH":15773,"BSTAR":-0.00010301443,"MEAN_MOTION_DOT":-2.8e-7,"MEAN_MOTION_DDOT":0},{"OBJECT_NAME":"ONEWEB-0507","OBJECT_ID":"2022-138N","EPOCH":"2026-01-23T09:15:59.204160","MEAN_MOTION":13.19727954,"ECCENTRICITY":0.00016078,"INCLINATION":87.9235,"RA_OF_ASC_NODE":333.7978,"ARG_OF_PERICENTER":76.8832,"MEAN_ANOMALY":283.248,"EPHEMERIS_TYPE":0,"CLASSIFICATION_TYPE":"U","NORAD_CAT_ID":54125,"ELEMENT_SET_NO":999,"REV_AT_EPOCH":15775,"BSTAR":-0.00030867928,"MEAN_MOTION_DOT":-1.11e-6,"MEAN_MOTION_DDOT":0},{"OBJECT_NAME":"ONEWEB-0508","OBJECT_ID":"2022-138P","EPOCH":"2026-01-23T14:38:58.234272","MEAN_MOTION":13.19727403,"ECCENTRICITY":0.00014305,"INCLINATION":87.9238,"RA_OF_ASC_NODE":333.7501,"ARG_OF_PERICENTER":74.5161,"MEAN_ANOMALY":285.613,"EPHEMERIS_TYPE":0,"CLASSIFICATION_TYPE":"U","NORAD_CAT_ID":54126,"ELEMENT_SET_NO":999,"REV_AT_EPOCH":15776,"BSTAR":-2.7807139e-5,"MEAN_MOTION_DOT":2.0e-8,"MEAN_MOTION_DDOT":0},{"OBJECT_NAME":"ONEWEB-0509","OBJECT_ID":"2022-138Q","EPOCH":"2026-01-23T14:02:34.174464","MEAN_MOTION":13.19727593,"ECCENTRICITY":0.00016905,"INCLINATION":87.9252,"RA_OF_ASC_NODE":333.73,"ARG_OF_PERICENTER":76.9509,"MEAN_ANOMALY":283.1812,"EPHEMERIS_TYPE":0,"CLASSIFICATION_TYPE":"U","NORAD_CAT_ID":54127,"ELEMENT_SET_NO":999,"REV_AT_EPOCH":15773,"BSTAR":0.00014612511,"MEAN_MOTION_DOT":7.1e-7,"MEAN_MOTION_DDOT":0},{"OBJECT_NAME":"ONEWEB-0510","OBJECT_ID":"2022-138R","EPOCH":"2026-01-23T14:06:02.507328","MEAN_MOTION":13.2076992,"ECCENTRICITY":0.000211,"INCLINATION":87.923,"RA_OF_ASC_NODE":303.2867,"ARG_OF_PERICENTER":85.9228,"MEAN_ANOMALY":274.2147,"EPHEMERIS_TYPE":0,"CLASSIFICATION_TYPE":"U","NORAD_CAT_ID":54128,"ELEMENT_SET_NO":999,"REV_AT_EPOCH":16019,"BSTAR":4.8049721e-5,"MEAN_MOTION_DOT":3.3e-7,"MEAN_MOTION_DDOT":0},{"OBJECT_NAME":"ONEWEB-0511","OBJECT_ID":"2022-138S","EPOCH":"2026-01-23T08:30:30.547872","MEAN_MOTION":13.19727098,"ECCENTRICITY":0.00020019,"INCLINATION":87.9252,"RA_OF_ASC_NODE":333.7797,"ARG_OF_PERICENTER":73.5994,"MEAN_ANOMALY":286.5359,"EPHEMERIS_TYPE":0,"CLASSIFICATION_TYPE":"U","NORAD_CAT_ID":54129,"ELEMENT_SET_NO":999,"REV_AT_EPOCH":15773,"BSTAR":0.00017256423,"MEAN_MOTION_DOT":8.2e-7,"MEAN_MOTION_DDOT":0},{"OBJECT_NAME":"ONEWEB-0512","OBJECT_ID":"2022-138T","EPOCH":"2026-01-23T08:19:08.492448","MEAN_MOTION":13.19725902,"ECCENTRICITY":0.0001683,"INCLINATION":87.9242,"RA_OF_ASC_NODE":333.8005,"ARG_OF_PERICENTER":68.554,"MEAN_ANOMALY":291.5772,"EPHEMERIS_TYPE":0,"CLASSIFICATION_TYPE":"U","NORAD_CAT_ID":54130,"ELEMENT_SET_NO":999,"REV_AT_EPOCH":15770,"BSTAR":0.00019744826,"MEAN_MOTION_DOT":9.2e-7,"MEAN_MOTION_DDOT":0},{"OBJECT_NAME":"ONEWEB-0513","OBJECT_ID":"2022-138U","EPOCH":"2026-01-23T13:30:31.637952","MEAN_MOTION":13.20262585,"ECCENTRICITY":0.00018624,"INCLINATION":87.9253,"RA_OF_ASC_NODE":333.7158,"ARG_OF_PERICENTER":52.1308,"MEAN_ANOMALY":307.9993,"EPHEMERIS_TYPE":0,"CLASSIFICATION_TYPE":"U","NORAD_CAT_ID":54131,"ELEMENT_SET_NO":999,"REV_AT_EPOCH":15763,"BSTAR":0.00017289467,"MEAN_MOTION_DOT":8.3e-7,"MEAN_MOTION_DDOT":0},{"OBJECT_NAME":"ONEWEB-0514","OBJECT_ID":"2022-138V","EPOCH":"2026-01-23T14:09:24.204672","MEAN_MOTION":13.19726828,"ECCENTRICITY":0.00019012,"INCLINATION":87.9245,"RA_OF_ASC_NODE":333.74,"ARG_OF_PERICENTER":81.2989,"MEAN_ANOMALY":278.8359,"EPHEMERIS_TYPE":0,"CLASSIFICATION_TYPE":"U","NORAD_CAT_ID":54132,"ELEMENT_SET_NO":999,"REV_AT_EPOCH":15775,"BSTAR":-1.9183167e-5,"MEAN_MOTION_DOT":5.0e-8,"MEAN_MOTION_DDOT":0},{"OBJECT_NAME":"ONEWEB-0515","OBJECT_ID":"2022-138W","EPOCH":"2026-01-23T11:58:45.915456","MEAN_MOTION":13.20773523,"ECCENTRICITY":0.00018825,"INCLINATION":87.9232,"RA_OF_ASC_NODE":303.2923,"ARG_OF_PERICENTER":104.8789,"MEAN_ANOMALY":255.2553,"EPHEMERIS_TYPE":0,"CLASSIFICATION_TYPE":"U","NORAD_CAT_ID":54133,"ELEMENT_SET_NO":999,"REV_AT_EPOCH":16020,"BSTAR":9.1388575e-5,"MEAN_MOTION_DOT":5.0e-7,"MEAN_MOTION_DDOT":0},{"OBJECT_NAME":"ONEWEB-0516","OBJECT_ID":"2022-138X","EPOCH":"2026-01-23T13:33:01.257696","MEAN_MOTION":13.19726959,"ECCENTRICITY":0.00016798,"INCLINATION":87.9234,"RA_OF_ASC_NODE":333.7599,"ARG_OF_PERICENTER":80.955,"MEAN_ANOMALY":279.1773,"EPHEMERIS_TYPE":0,"CLASSIFICATION_TYPE":"U","NORAD_CAT_ID":54134,"ELEMENT_SET_NO":999,"REV_AT_EPOCH":15775,"BSTAR":0.00032976579,"MEAN_MOTION_DOT":1.45e-6,"MEAN_MOTION_DDOT":0},{"OBJECT_NAME":"ONEWEB-0517","OBJECT_ID":"2022-138Y","EPOCH":"2026-01-23T13:03:26.365824","MEAN_MOTION":13.19727283,"ECCENTRICITY":0.00020291,"INCLINATION":87.9243,"RA_OF_ASC_NODE":333.7497,"ARG_OF_PERICENTER":74.5731,"MEAN_ANOMALY":285.5626,"EPHEMERIS_TYPE":0,"CLASSIFICATION_TYPE":"U","NORAD_CAT_ID":54135,"ELEMENT_SET_NO":999,"REV_AT_EPOCH":15775,"BSTAR":4.9544471e-5,"MEAN_MOTION_DOT":3.3e-7,"MEAN_MOTION_DDOT":0},{"OBJECT_NAME":"ONEWEB-0518","OBJECT_ID":"2022-138Z","EPOCH":"2026-01-23T13:30:43.454880","MEAN_MOTION":13.19727753,"ECCENTRICITY":0.00016509,"INCLINATION":87.9235,"RA_OF_ASC_NODE":333.7618,"ARG_OF_PERICENTER":75.7195,"MEAN_ANOMALY":284.4121,"EPHEMERIS_TYPE":0,"CLASSIFICATION_TYPE":"U","NORAD_CAT_ID":54136,"ELEMENT_SET_NO":999,"REV_AT_EPOCH":15775,"BSTAR":0.00034301768,"MEAN_MOTION_DOT":1.5e-6,"MEAN_MOTION_DDOT":0},{"OBJECT_NAME":"ONEWEB-0519","OBJECT_ID":"2022-138AA","EPOCH":"2026-01-23T14:07:08.660352","MEAN_MOTION":13.19724737,"ECCENTRICITY":0.00019892,"INCLINATION":87.9247,"RA_OF_ASC_NODE":333.7314,"ARG_OF_PERICENTER":75.4051,"MEAN_ANOMALY":284.7302,"EPHEMERIS_TYPE":0,"CLASSIFICATION_TYPE":"U","NORAD_CAT_ID":54137,"ELEMENT_SET_NO":999,"REV_AT_EPOCH":15776,"BSTAR":-5.5542757e-5,"MEAN_MOTION_DOT":-9.0e-8,"MEAN_MOTION_DDOT":0},{"OBJECT_NAME":"ONEWEB-0520","OBJECT_ID":"2022-138AB","EPOCH":"2026-01-23T13:08:00.163104","MEAN_MOTION":13.19726728,"ECCENTRICITY":0.00015404,"INCLINATION":87.9252,"RA_OF_ASC_NODE":333.7451,"ARG_OF_PERICENTER":72.4098,"MEAN_ANOMALY":287.7202,"EPHEMERIS_TYPE":0,"CLASSIFICATION_TYPE":"U","NORAD_CAT_ID":54138,"ELEMENT_SET_NO":999,"REV_AT_EPOCH":15774,"BSTAR":0.00024554454,"MEAN_MOTION_DOT":1.11e-6,"MEAN_MOTION_DDOT":0},{"OBJECT_NAME":"ONEWEB-0521","OBJECT_ID":"2022-138AC","EPOCH":"2026-01-23T13:55:46.216128","MEAN_MOTION":13.19726365,"ECCENTRICITY":0.00020256,"INCLINATION":87.925,"RA_OF_ASC_NODE":333.7227,"ARG_OF_PERICENTER":77.5144,"MEAN_ANOMALY":282.6215,"EPHEMERIS_TYPE":0,"CLASSIFICATION_TYPE":"U","NORAD_CAT_ID":54139,"ELEMENT_SET_NO":999,"REV_AT_EPOCH":15769,"BSTAR":0.00010633692,"MEAN_MOTION_DOT":5.6e-7,"MEAN_MOTION_DDOT":0}]
